*******************************************************************************
Ephemeris / WWW_USER Fri Mar  7 11:21:14 2025 Pasadena, USA      / Horizons    
*******************************************************************************
Target body name: (2018 VN1)                      {source: JPL#9}
Center body name: Earth (399)                     {source: DE441}
Center-site name: Mauna Kea
*******************************************************************************
Start time      : A.D. 2018-Nov-28 03:51:00.0000 UT      
Stop  time      : A.D. 2018-Nov-28 16:28:00.0000 UT      
Step-size       : 1 minutes
*******************************************************************************
Target pole/equ : undefined
Target radii    : undefined                                                    
Center geodetic : 204.5278, 19.8260847, 4.21024   {E-lon(deg),Lat(deg),Alt(km)}
Center cylindric: 204.5278, 6006.35451, 2151.0229 {E-lon(deg),Dxy(km),Dz(km)}
Center pole/equ : ITRF93                          {East-longitude positive}
Center radii    : 6378.137, 6378.137, 6356.752 km {Equator_a, b, pole_c}       
Target primary  : Sun
Vis. interferer : MOON (R_eq= 1737.400) km        {source: DE441}
Rel. light bend : Sun                             {source: DE441}
Rel. lght bnd GM: 1.3271E+11 km^3/s^2                                          
Small-body perts: Yes                             {source: SB441-N16}
Atmos refraction: NO (AIRLESS)
RA format       : HMS
Time format     : CAL 
Calendar mode   : Mixed Julian/Gregorian
RTS-only print  : NO       
EOP file        : eop.250306.p250602                                           
EOP coverage    : DATA-BASED 1962-JAN-20 TO 2025-MAR-06. PREDICTS-> 2025-JUN-01
Units conversion: 1 au= 149597870.700 km, c= 299792.458 km/s, 1 day= 86400.0 s 
Table cut-offs 1: Elevation (-90.0deg=NO ),Airmass (>38.000=NO), Daylight (YES)
Table cut-offs 2: Solar elongation (  0.0,180.0=NO ),Local Hour Angle( 0.0=NO )
Table cut-offs 3: RA/DEC angular rate (     0.0=NO )                           
*******************************************************************************
Initial IAU76/J2000 heliocentric ecliptic osculating elements (au, days, deg.):
  EPOCH=  2458428.5 ! 2018-Nov-06.00 (TDB)         Residual RMS= .27219        
   EC= .3884608603153671   QR= 1.011903292497374   TP= 2458433.1511739166      
   OM= 228.4137592171332   W=  180.2469578564258   IN= 3.355185598403424       
  Equivalent ICRF heliocentric cartesian coordinates (au, au/d):
   X= 7.364971791856070E-01  Y= 6.361813492829538E-01  Z= 2.815132693616627E-01
  VX=-1.417073247356795E-02 VY= 1.354428742085641E-02 VZ= 4.590405825264917E-03
Asteroid physical parameters (km, seconds, rotational period in hours):        
   GM= n.a.                RAD= n.a.               ROTPER= n.a.                
   H= 26.2                 G= .150                 B-V= n.a.                   
                           ALBEDO= n.a.            STYP= n.a.                  
*******************************************************************************
 Date__(UT)__HR:MN     R.A._________(ICRF)_________DEC
******************************************************
$$SOE
 2018-Nov-28 16:09 Nm  07 42 03.992857 +03 15 07.86112
 2018-Nov-28 16:10 Nm  07 42 04.049259 +03 15 07.01044
 2018-Nov-28 16:11 Nm  07 42 04.105751 +03 15 06.15974
 2018-Nov-28 16:12 Nm  07 42 04.162334 +03 15 05.30900
 2018-Nov-28 16:13 Nm  07 42 04.219008 +03 15 04.45823
 2018-Nov-28 16:14 Nm  07 42 04.275773 +03 15 03.60744
 2018-Nov-28 16:15 Cm  07 42 04.332631 +03 15 02.75661
 2018-Nov-28 16:16 Cm  07 42 04.389581 +03 15 01.90576
 2018-Nov-28 16:17 Cm  07 42 04.446624 +03 15 01.05487
 2018-Nov-28 16:18 Cm  07 42 04.503761 +03 15 00.20396
 2018-Nov-28 16:19 Cm  07 42 04.560992 +03 14 59.35302
 2018-Nov-28 16:20 Cm  07 42 04.618317 +03 14 58.50205
 2018-Nov-28 16:21 Cm  07 42 04.675738 +03 14 57.65106
 2018-Nov-28 16:22 Cm  07 42 04.733254 +03 14 56.80004
 2018-Nov-28 16:23 Cm  07 42 04.790867 +03 14 55.94899
 2018-Nov-28 16:24 Cm  07 42 04.848576 +03 14 55.09792
 2018-Nov-28 16:25 Cm  07 42 04.906382 +03 14 54.24682
 2018-Nov-28 16:26 Cm  07 42 04.964285 +03 14 53.39570
 2018-Nov-28 16:27 Cm  07 42 05.022287 +03 14 52.54455
 2018-Nov-28 16:28 Cm  07 42 05.080387 +03 14 51.69338
